STARLINK-36254          
1 68338U 26059T   26193.99555721  .00023739  00000+0  71105-3 0  9994
2 68338  53.1592 120.3037 0001808 104.3247 255.7956 15.34420088 17449
STARLINK-37200          
1 68339U 26059U   26193.84938776  .00011407  00000+0  39665-3 0  9998
2 68339  53.1574 126.5144 0000773  36.1463 323.9590 15.30201993 17348
STARLINK-37185          
1 68340U 26059V   26194.15318363  .00025996  00000+0  77757-3 0  9991
2 68340  53.1572 119.8755 0000988  81.1084 279.0031 15.34411323 17466
STARLINK-37181          
1 68341U 26059W   26194.23094539  .00020163  00000+0  60580-3 0  9994
2 68341  53.1618 119.6448 0002718  84.9262 275.2051 15.34423572 17477
STARLINK-37192          
1 68342U 26059X   26193.95148472  .00021250  00000+0  63814-3 0  9990
2 68342  53.1565 120.7761 0001506  19.2866 340.8193 15.34406825 17439
STARLINK-37158          
1 68343U 26059Y   26193.92630331  .00027023  00000+0  80747-3 0  9996
2 68343  53.1581 121.3045 0001016  98.1519 261.9598 15.34422340 17428
STARLINK-36380          
1 68344U 26059Z   26194.22237215  .00008592  00000+0  30960-3 0  9997
2 68344  53.1583 126.0030 0001387  89.6291 270.4868 15.29370519 17384
STARLINK-37214          
1 68345U 26059AA  26193.21182830  .00020997  00000+0  63093-3 0  9994
2 68345  53.1615 123.9519 0000763  71.8511 288.2575 15.34395518 17322
STARLINK-37169          
1 68346U 26059AB  26194.17843090  .00015126  00000+0  45773-3 0  9996
2 68346  53.1573 120.0380 0001033  88.9512 271.1608 15.34412163 17460
STARLINK-37136          
1 68347U 26059AC  26194.24654532  .00010234  00000+0  35709-3 0  9999
2 68347  53.1607 124.7196 0001394  85.0116 275.1044 15.30209262 17405
STARLINK-37182          
1 68348U 26059AD  26194.16159780  .00020907  00000+0  62745-3 0  9994
2 68348  53.1569 119.9264 0000998 109.7153 250.3958 15.34436952 17466
STARLINK-37183          
1 68349U 26059AE  26193.78619787  .00007899  00000+0  27888-3 0  9994
2 68349  53.1573 126.8249 0001932 109.1982 250.9228 15.30159022 17333
STARLINK-36946          
1 68382U 26063C   26194.40777478  .00014926  00000+0  46363-3 0  9996
2 68382  97.2840 336.3010 0001262 104.6832 255.4550 15.33452018 17163
STARLINK-37137          
1 68384U 26063E   26194.33978961  .00020553  00000+0  63704-3 0  9991
2 68384  97.2850 336.2396 0000037  50.8958 309.2288 15.33454402 17156
STARLINK-37128          
1 68385U 26063F   26194.36426303  .00016776  00000+0  52059-3 0  9996
2 68385  97.2887 336.2040 0001985  88.8354 271.3116 15.33457702 17152
STARLINK-37198          
1 68386U 26063G   26194.39145009  .00011268  00000+0  35075-3 0  9991
2 68386  97.2834 336.3230 0000811 106.4932 253.6400 15.33452361 17169
STARLINK-37223          
1 68387U 26063H   26194.36154350  .00021630  00000+0  67012-3 0  9998
2 68387  97.2854 336.2114 0001632  97.0399 263.1030 15.33457225 17154
STARLINK-37203          
1 68388U 26063J   26194.34522949  .00013245  00000+0  41176-3 0  9996
2 68388  97.2846 336.2325 0001167  96.0062 264.1314 15.33452871 17157
STARLINK-37197          
1 68389U 26063K   26194.39961948 -.00001029  00000+0 -29566-4 0  9997
2 68389  97.2854 336.3123 0000659  84.9992 275.1326 15.33429128 17162
STARLINK-37193          
1 68390U 26063L   26194.47803081  .00010013  00000+0  31199-3 0  9996
2 68390  97.2856 339.2577 0001510  90.4588 269.6828 15.33452732 17365
STARLINK-37216          
1 68391U 26063M   26194.37242135  .00012920  00000+0  40168-3 0  9998
2 68391  97.2849 336.1978 0002004 103.1766 256.9700 15.33457697 17158
STARLINK-37215          
1 68392U 26063N   26194.36697944  .00015148  00000+0  47053-3 0  9995
2 68392  97.2865 336.2014 0000808 155.7688 204.3593 15.33449192 17153
STARLINK-37184          
1 68393U 26063P   26194.35067169  .00015056  00000+0  46727-3 0  9990
2 68393  97.2865 336.2245 0001442 118.9468 241.1920 15.33478221 17150
STARLINK-37157          
1 68394U 26063Q   26194.39416916  .00010775  00000+0  33553-3 0  9999
2 68394  97.2854 336.3214 0000576  92.4787 267.6521 15.33451803 17161
STARLINK-37172          
1 68395U 26063R   26194.38329340  .00013120  00000+0  40787-3 0  9997
2 68395  97.2844 336.1839 0001267  77.0908 283.0476 15.33455287 17154
STARLINK-37190          
1 68396U 26063S   26194.40232485  .00005879  00000+0  18426-3 0  9991
2 68396  97.2837 336.3102 0000580 317.3192  42.8005 15.33450195 17167
STARLINK-37194          
1 68397U 26063T   26194.35882529  .00017276  00000+0  53603-3 0  9996
2 68397  97.2859 336.2148 0001677 100.5980 259.5451 15.33456326 17159
