OBJECT_NAME,OBJECT_ID,EPOCH,MEAN_MOTION,ECCENTRICITY,INCLINATION,RA_OF_ASC_NODE,ARG_OF_PERICENTER,MEAN_ANOMALY,EPHEMERIS_TYPE,CLASSIFICATION_TYPE,NORAD_CAT_ID,ELEMENT_SET_NO,REV_AT_EPOCH,BSTAR,MEAN_MOTION_DOT,MEAN_MOTION_DDOT
STARLINK-36254,2026-059T,2026-07-12T23:53:36.142944,15.34420088,.00018086,53.1592,120.3037,104.3247,255.7956,0,U,68338,999,1744,.71105244E-3,.23739E-3,0
STARLINK-37200,2026-059U,2026-07-12T20:23:07.102464,15.30201993,.00007736,53.1574,126.5144,36.1463,323.9590,0,U,68339,999,1734,.39664856E-3,.11407E-3,0
STARLINK-37185,2026-059V,2026-07-13T03:40:35.065632,15.34411323,.00009889,53.1572,119.8755,81.1084,279.0031,0,U,68340,999,1746,.77756628E-3,.25996E-3,0
STARLINK-37181,2026-059W,2026-07-13T05:32:33.681696,15.34423572,.0002718,53.1618,119.6448,84.9262,275.2051,0,U,68341,999,1747,.6058E-3,.20163E-3,0
STARLINK-37192,2026-059X,2026-07-12T22:50:08.279808,15.34406825,.00015062,53.1565,120.7761,19.2866,340.8193,0,U,68342,999,1743,.63813858E-3,.2125E-3,0
STARLINK-37158,2026-059Y,2026-07-12T22:13:52.605984,15.34422340,.00010166,53.1581,121.3045,98.1519,261.9598,0,U,68343,999,1742,.80746935E-3,.27023E-3,0
STARLINK-36380,2026-059Z,2026-07-13T05:20:12.953760,15.29370519,.0001387,53.1583,126.0030,89.6291,270.4868,0,U,68344,999,1738,.3096E-3,.8592E-4,0
STARLINK-37214,2026-059AA,2026-07-12T05:05:01.965120,15.34395518,.00007635,53.1615,123.9519,71.8511,288.2575,0,U,68345,999,1732,.63092949E-3,.20997E-3,0
STARLINK-37169,2026-059AB,2026-07-13T04:16:56.429760,15.34412163,.0001033,53.1573,120.0380,88.9512,271.1608,0,U,68346,999,1746,.45773E-3,.15126E-3,0
STARLINK-37136,2026-059AC,2026-07-13T05:55:01.515648,15.30209262,.0001394,53.1607,124.7196,85.0116,275.1044,0,U,68347,999,1740,.35709E-3,.10234E-3,0
STARLINK-37182,2026-059AD,2026-07-13T03:52:42.049920,15.34436952,.0000998,53.1569,119.9264,109.7153,250.3958,0,U,68348,999,1746,.62745E-3,.20907E-3,0
STARLINK-37183,2026-059AE,2026-07-12T18:52:07.495968,15.30159022,.00019325,53.1573,126.8249,109.1982,250.9228,0,U,68349,999,1733,.27887604E-3,.7899E-4,0
STARLINK-36946,2026-063C,2026-07-13T09:47:11.740992,15.33452018,.0001262,97.2840,336.3010,104.6832,255.4550,0,U,68382,999,1716,.46363E-3,.14926E-3,0
STARLINK-37137,2026-063E,2026-07-13T08:09:17.822304,15.33454402,.0000037,97.2850,336.2396,50.8958,309.2288,0,U,68384,999,1715,.63704E-3,.20553E-3,0
STARLINK-37128,2026-063F,2026-07-13T08:44:32.325792,15.33457702,.0001985,97.2887,336.2040,88.8354,271.3116,0,U,68385,999,1715,.52059E-3,.16776E-3,0
STARLINK-37198,2026-063G,2026-07-13T09:23:41.287776,15.33452361,.0000811,97.2834,336.3230,106.4932,253.6400,0,U,68386,999,1716,.35075E-3,.11268E-3,0
STARLINK-37223,2026-063H,2026-07-13T08:40:37.358400,15.33457225,.0001632,97.2854,336.2114,97.0399,263.1030,0,U,68387,999,1715,.67012E-3,.2163E-3,0
STARLINK-37203,2026-063J,2026-07-13T08:17:07.827936,15.33452871,.0001167,97.2846,336.2325,96.0062,264.1314,0,U,68388,999,1715,.41176E-3,.13245E-3,0
STARLINK-37197,2026-063K,2026-07-13T09:35:27.123072,15.33429128,.0000659,97.2854,336.3123,84.9992,275.1326,0,U,68389,999,1716,-.29566E-4,-.1029E-4,0
STARLINK-37193,2026-063L,2026-07-13T11:28:21.861984,15.33452732,.000151,97.2856,339.2577,90.4588,269.6828,0,U,68390,999,1736,.31199E-3,.10013E-3,0
STARLINK-37216,2026-063M,2026-07-13T08:56:17.204640,15.33457697,.0002004,97.2849,336.1978,103.1766,256.9700,0,U,68391,999,1715,.40168E-3,.1292E-3,0
STARLINK-37215,2026-063N,2026-07-13T08:48:27.023616,15.33449192,.0000808,97.2865,336.2014,155.7688,204.3593,0,U,68392,999,1715,.47053E-3,.15148E-3,0
STARLINK-37184,2026-063P,2026-07-13T08:24:58.034016,15.33478221,.0001442,97.2865,336.2245,118.9468,241.1920,0,U,68393,999,1715,.46727E-3,.15056E-3,0
STARLINK-37157,2026-063Q,2026-07-13T09:27:36.215424,15.33451803,.0000576,97.2854,336.3214,92.4787,267.6521,0,U,68394,999,1716,.33553E-3,.10775E-3,0
STARLINK-37172,2026-063R,2026-07-13T09:11:56.549760,15.33455287,.0001267,97.2844,336.1839,77.0908,283.0476,0,U,68395,999,1715,.40787E-3,.1312E-3,0
STARLINK-37190,2026-063S,2026-07-13T09:39:20.867040,15.33450195,.000058,97.2837,336.3102,317.3192,42.8005,0,U,68396,999,1716,.18426E-3,.5879E-4,0
STARLINK-37194,2026-063T,2026-07-13T08:36:42.505056,15.33456326,.0001677,97.2859,336.2148,100.5980,259.5451,0,U,68397,999,1715,.53603E-3,.17276E-3,0
